{"type": "FeatureCollection", "features": [ {"type": "Feature", "properties": {"norad_id": 66654, "name": "JACK E", "group": "last-30-days", "lat": -56.66726781745132, "lon": -77.82063213475406, "alt_km": 591.6716558736825, "timestamp": "2025-12-08T23:34:02.741013+00:00", "meta": {"OBJECT_NAME": "JACK E", "OBJECT_ID": "2025-274E", "EPOCH": "2025-12-08T07:43:44.814144", "MEAN_MOTION": 14.92044006, "ECCENTRICITY": 0.00118548, "INCLINATION": 97.739, "RA_OF_ASC_NODE": 269.5982, "ARG_OF_PERICENTER": 272.2278, "MEAN_ANOMALY": 87.7583, "EPHEMERIS_TYPE": 0, "CLASSIFICATION_TYPE": "U", "NORAD_CAT_ID": 66654, "ELEMENT_SET_NO": 999, "REV_AT_EPOCH": 174, "BSTAR": 0.00041229952, "MEAN_MOTION_DOT": 4.134e-05, "MEAN_MOTION_DDOT": 0}, "tle": {"line1": "1 66654U 25274E   25342.32204646  .00004134  00000+0  41230-3 0  9994", "line2": "2 66654  97.7390 269.5982 0011854 272.2278  87.7583 14.92044006  1744"}}, "geometry": {"type": "Point", "coordinates": [-77.82063213475406, -56.66726781745132]}}, {"type": "Feature", "properties": {"norad_id": 66655, "name": "2025-274F", "group": "last-30-days", "lat": -47.02266692933128, "lon": -81.36560108922411, "alt_km": 593.184882137929, "timestamp": "2025-12-08T23:34:02.741023+00:00", "meta": {"OBJECT_NAME": "2025-274F", "OBJECT_ID": "2025-274F", "EPOCH": "2025-12-08T12:31:00.607584", "MEAN_MOTION": 14.92495059, "ECCENTRICITY": 0.00055016, "INCLINATION": 97.7329, "RA_OF_ASC_NODE": 269.7968, "ARG_OF_PERICENTER": 325.2588, "MEAN_ANOMALY": 34.8271, "EPHEMERIS_TYPE": 0, "CLASSIFICATION_TYPE": "U", "NORAD_CAT_ID": 66655, "ELEMENT_SET_NO": 999, "REV_AT_EPOCH": 177, "BSTAR": 0.0014211511, "MEAN_MOTION_DOT": 0.00014557, "MEAN_MOTION_DDOT": 0}, "tle": {"line1": "1 66655U 25274F   25342.52153481  .00014557  00000+0  14212-2 0  9996", "line2": "2 66655  97.7329 269.7968 0005501 325.2588  34.8271 14.92495059  1776"}}, "geometry": {"type": "Point", "coordinates": [-81.36560108922411, -47.02266692933128]}}, {"type": "Feature", "properties": {"norad_id": 66656, "name": "2025-274G", "group": "last-30-days", "lat": -48.81278884997599, "lon": -80.81033512177994, "alt_km": 591.069808643444, "timestamp": "2025-12-08T23:34:02.741033+00:00", "meta": {"OBJECT_NAME": "2025-274G", "OBJECT_ID": "2025-274G", "EPOCH": "2025-12-08T12:31:22.949760", "MEAN_MOTION": 14.92234576, "ECCENTRICITY": 0.00124897, "INCLINATION": 97.7388, "RA_OF_ASC_NODE": 269.7972, "ARG_OF_PERICENTER": 273.2394, "MEAN_ANOMALY": 86.7396, "EPHEMERIS_TYPE": 0, "CLASSIFICATION_TYPE": "U", "NORAD_CAT_ID": 66656, "ELEMENT_SET_NO": 999, "REV_AT_EPOCH": 177, "BSTAR": 0.00048564902, "MEAN_MOTION_DOT": 4.904e-05, "MEAN_MOTION_DDOT": 0}, "tle": {"line1": "1 66656U 25274G   25342.52179340  .00004904  00000+0  48565-3 0  9993", "line2": "2 66656  97.7388 269.7972 0012489 273.2394  86.7396 14.92234576  1776"}}, "geometry": {"type": "Point", "coordinates": [-80.81033512177994, -48.81278884997599]}}, {"type": "Feature", "properties": {"norad_id": 66657, "name": "SPIRONE", "group": "last-30-days", "lat": -41.08648057218641, "lon": -82.9381388018195, "alt_km": 590.2198556899366, "timestamp": "2025-12-08T23:34:02.741043+00:00", "meta": {"OBJECT_NAME": "SPIRONE", "OBJECT_ID": "2025-274H", "EPOCH": "2025-12-08T07:39:42.153696", "MEAN_MOTION": 14.92410974, "ECCENTRICITY": 0.00110012, "INCLINATION": 97.7387, "RA_OF_ASC_NODE": 269.601, "ARG_OF_PERICENTER": 292.9118, "MEAN_ANOMALY": 67.0939, "EPHEMERIS_TYPE": 0, "CLASSIFICATION_TYPE": "U", "NORAD_CAT_ID": 66657, "ELEMENT_SET_NO": 999, "REV_AT_EPOCH": 174, "BSTAR": 0.00040987248, "MEAN_MOTION_DOT": 4.147e-05, "MEAN_MOTION_DDOT": 0}, "tle": {"line1": "1 66657U 25274H   25342.31923789  .00004147  00000+0  40987-3 0  9994", "line2": "2 66657  97.7387 269.6010 0011001 292.9118  67.0939 14.92410974  1749"}}, "geometry": {"type": "Point", "coordinates": [-82.9381388018195, -41.08648057218641]}}, {"type": "Feature", "properties": {"norad_id": 66658, "name": "2025-274J", "group": "last-30-days", "lat": -33.462507460332425, "lon": -84.58784277004695, "alt_km": 589.2688819233581, "timestamp": "2025-12-08T23:34:02.741055+00:00", "meta": {"OBJECT_NAME": "2025-274J", "OBJECT_ID": "2025-274J", "EPOCH": "2025-12-08T06:01:12.095616", "MEAN_MOTION": 14.92583165, "ECCENTRICITY": 0.00115832, "INCLINATION": 97.7387, "RA_OF_ASC_NODE": 269.5369, "ARG_OF_PERICENTER": 296.1816, "MEAN_ANOMALY": 63.8212, "EPHEMERIS_TYPE": 0, "CLASSIFICATION_TYPE": "U", "NORAD_CAT_ID": 66658, "ELEMENT_SET_NO": 999, "REV_AT_EPOCH": 173, "BSTAR": 0.0003872742, "MEAN_MOTION_DOT": 3.932e-05, "MEAN_MOTION_DDOT": 0}, "tle": {"line1": "1 66658U 25274J   25342.25083444  .00003932  00000+0  38727-3 0  9993", "line2": "2 66658  97.7387 269.5369 0011583 296.1816  63.8212 14.92583165  1732"}}, "geometry": {"type": "Point", "coordinates": [-84.58784277004695, -33.462507460332425]}}, {"type": "Feature", "properties": {"norad_id": 66659, "name": "JACK K", "group": "last-30-days", "lat": -25.331019099949387, "lon": -86.04966902523803, "alt_km": 588.3544638470048, "timestamp": "2025-12-08T23:34:02.741066+00:00", "meta": {"OBJECT_NAME": "JACK K", "OBJECT_ID": "2025-274K", "EPOCH": "2025-12-08T14:01:45.022368", "MEAN_MOTION": 14.92772871, "ECCENTRICITY": 0.00123018, "INCLINATION": 97.7389, "RA_OF_ASC_NODE": 269.8688, "ARG_OF_PERICENTER": 296.1145, "MEAN_ANOMALY": 63.8808, "EPHEMERIS_TYPE": 0, "CLASSIFICATION_TYPE": "U", "NORAD_CAT_ID": 66659, "ELEMENT_SET_NO": 999, "REV_AT_EPOCH": 178, "BSTAR": 0.00043957351, "MEAN_MOTION_DOT": 4.494e-05, "MEAN_MOTION_DDOT": 0}, "tle": {"line1": "1 66659U 25274K   25342.58454887  .00004494  00000+0  43957-3 0  9998", "line2": "2 66659  97.7389 269.8688 0012301 296.1145  63.8808 14.92772871  1786"}}, "geometry": {"type": "Point", "coordinates": [-86.04966902523803, -25.331019099949387]}}, {"type": "Feature", "properties": {"norad_id": 66660, "name": "K-HERO", "group": "last-30-days", "lat": -18.77548488591556, "lon": -87.08733101466062, "alt_km": 587.6515347690402, "timestamp": "2025-12-08T23:34:02.741076+00:00", "meta": {"OBJECT_NAME": "K-HERO", "OBJECT_ID": "2025-274L", "EPOCH": "2025-12-08T14:00:02.007648", "MEAN_MOTION": 14.92923819, "ECCENTRICITY": 0.00129102, "INCLINATION": 97.7393, "RA_OF_ASC_NODE": 269.8708, "ARG_OF_PERICENTER": 296.7617, "MEAN_ANOMALY": 63.2281, "EPHEMERIS_TYPE": 0, "CLASSIFICATION_TYPE": "U", "NORAD_CAT_ID": 66660, "ELEMENT_SET_NO": 999, "REV_AT_EPOCH": 178, "BSTAR": 0.00048009641, "MEAN_MOTION_DOT": 4.933e-05, "MEAN_MOTION_DDOT": 0}, "tle": {"line1": "1 66660U 25274L   25342.58335657  .00004933  00000+0  48010-3 0  9996", "line2": "2 66660  97.7393 269.8708 0012910 296.7617  63.2281 14.92923819  1781"}}, "geometry": {"type": "Point", "coordinates": [-87.08733101466062, -18.77548488591556]}}, {"type": "Feature", "properties": {"norad_id": 66661, "name": "SNUGLITE-III", "group": "last-30-days", "lat": -12.123035579901767, "lon": -88.0606759135183, "alt_km": 586.9385943872876, "timestamp": "2025-12-08T23:34:02.741086+00:00", "meta": {"OBJECT_NAME": "SNUGLITE-III", "OBJECT_ID": "2025-274M", "EPOCH": "2025-12-08T09:08:46.367808", "MEAN_MOTION": 14.93065517, "ECCENTRICITY": 0.00135592, "INCLINATION": 97.7392, "RA_OF_ASC_NODE": 269.6743, "ARG_OF_PERICENTER": 298.5343, "MEAN_ANOMALY": 61.4511, "EPHEMERIS_TYPE": 0, "CLASSIFICATION_TYPE": "U", "NORAD_CAT_ID": 66661, "ELEMENT_SET_NO": 999, "REV_AT_EPOCH": 175, "BSTAR": 0.00032488595, "MEAN_MOTION_DOT": 3.331e-05, "MEAN_MOTION_DDOT": 0}, "tle": {"line1": "1 66661U 25274M   25342.38109222  .00003331  00000+0  32489-3 0  9996", "line2": "2 66661  97.7392 269.6743 0013559 298.5343  61.4511 14.93065517  1750"}}, "geometry": {"type": "Point", "coordinates": [-88.0606759135183, -12.123035579901767]}}, {"type": "Feature", "properties": {"norad_id": 66662, "name": "2025-274N", "group": "last-30-days", "lat": -9.463614160800143, "lon": -88.43462223068703, "alt_km": 586.7844466709585, "timestamp": "2025-12-08T23:34:02.741096+00:00", "meta": {"OBJECT_NAME": "2025-274N", "OBJECT_ID": "2025-274N", "EPOCH": "2025-12-08T09:08:04.855200", "MEAN_MOTION": 14.93112225, "ECCENTRICITY": 0.00139039, "INCLINATION": 97.739, "RA_OF_ASC_NODE": 269.6749, "ARG_OF_PERICENTER": 298.0607, "MEAN_ANOMALY": 61.9207, "EPHEMERIS_TYPE": 0, "CLASSIFICATION_TYPE": "U", "NORAD_CAT_ID": 66662, "ELEMENT_SET_NO": 999, "REV_AT_EPOCH": 175, "BSTAR": 0.00025414275, "MEAN_MOTION_DOT": 2.597e-05, "MEAN_MOTION_DDOT": 0}, "tle": {"line1": "1 66662U 25274N   25342.38061175  .00002597  00000+0  25414-3 0  9994", "line2": "2 66662  97.7390 269.6749 0013903 298.0607  61.9207 14.93112225  1752"}}, "geometry": {"type": "Point", "coordinates": [-88.43462223068703, -9.463614160800143]}}, {"type": "Feature", "properties": {"norad_id": 66663, "name": "KSLV-II R/B", "group": "last-30-days", "lat": 2.861781728431775, "lon": 90.75113459996817, "alt_km": 608.5276207164043, "timestamp": "2025-12-08T23:34:02.741105+00:00", "meta": {"OBJECT_NAME": "KSLV-II R/B", "OBJECT_ID": "2025-274P", "EPOCH": "2025-12-06T19:27:04.446432", "MEAN_MOTION": 14.97226496, "ECCENTRICITY": 0.00484111, "INCLINATION": 97.7412, "RA_OF_ASC_NODE": 268.2109, "ARG_OF_PERICENTER": 339.2416, "MEAN_ANOMALY": 20.6839, "EPHEMERIS_TYPE": 0, "CLASSIFICATION_TYPE": "U", "NORAD_CAT_ID": 66663, "ELEMENT_SET_NO": 999, "REV_AT_EPOCH": 152, "BSTAR": 0.00053388811, "MEAN_MOTION_DOT": 6.269e-05, "MEAN_MOTION_DDOT": 0}, "tle": {"line1": "1 66663U 25274P   25340.81046813  .00006269  00000+0  53389-3 0  9995", "line2": "2 66663  97.7412 268.2109 0048411 339.2416  20.6839 14.97226496  1529"}}, "geometry": {"type": "Point", "coordinates": [90.75113459996817, 2.861781728431775]}}]}